LUR-1                   
1 60506U 24149AQ  26068.79566301  .00009121  00000+0  32985-3 0  9998
2 60506  97.3790 148.4255 0002777 309.1571  50.9421 15.28658648 86785
STARLINK-32568          
1 62128U 24222Q   26068.53626012  .00039010  00000+0  14201-2 0  9990
2 62128  42.9983 137.2058 0001206 271.2588  88.8126 15.27570226 72463
